[{"OBJECT_NAME":"ICEYE-X11","OBJECT_ID":"2021-059AR","EPOCH":"2026-03-09T23:58:26.261184","MEAN_MOTION":15.74026715,"ECCENTRICITY":0.00046944,"INCLINATION":97.6457,"RA_OF_ASC_NODE":256.9655,"ARG_OF_PERICENTER":333.4383,"MEAN_ANOMALY":26.664,"EPHEMERIS_TYPE":0,"CLASSIFICATION_TYPE":"U","NORAD_CAT_ID":48918,"ELEMENT_SET_NO":999,"REV_AT_EPOCH":26228,"BSTAR":0.00071987659,"MEAN_MOTION_DOT":0.00103309,"MEAN_MOTION_DDOT":0},{"OBJECT_NAME":"STARLINK-11635 [DTC]","OBJECT_ID":"2025-048L","EPOCH":"2026-03-09T19:29:48.488064","MEAN_MOTION":15.71004156,"ECCENTRICITY":0.0002923,"INCLINATION":42.9997,"RA_OF_ASC_NODE":318.8684,"ARG_OF_PERICENTER":244.6092,"MEAN_ANOMALY":115.4473,"EPHEMERIS_TYPE":0,"CLASSIFICATION_TYPE":"U","NORAD_CAT_ID":63193,"ELEMENT_SET_NO":999,"REV_AT_EPOCH":5854,"BSTAR":0.001850946,"MEAN_MOTION_DOT":0.0024592,"MEAN_MOTION_DDOT":0}]
